CCSDS_OMM_VERS = 2.0
CREATION_DATE  = 
ORIGINATOR     = 

OBJECT_NAME    = STARLINK-35608
OBJECT_ID      = 2025-263Z
CENTER_NAME    = EARTH
REF_FRAME      = TEME
TIME_SYSTEM    = UTC
MEAN_ELEMENT_THEORY = SGP/SGP4

EPOCH          = 2025-11-30T22:00:03.000096
MEAN_MOTION    = 15.75052288
ECCENTRICITY   = .00019521
INCLINATION    = 42.9986
RA_OF_ASC_NODE = 195.1930
ARG_OF_PERICENTER = 275.9488
MEAN_ANOMALY   = 172.1731

EPHEMERIS_TYPE = 0
CLASSIFICATION_TYPE = U
NORAD_CAT_ID   = 66508
ELEMENT_SET_NO = 999
REV_AT_EPOCH   = 373
BSTAR          = -.27271262E-3
MEAN_MOTION_DOT = -.42186E-3
MEAN_MOTION_DDOT = 0

CCSDS_OMM_VERS = 2.0
CREATION_DATE  = 
ORIGINATOR     = 

OBJECT_NAME    = STARLINK-35598
OBJECT_ID      = 2025-263AA
CENTER_NAME    = EARTH
REF_FRAME      = TEME
TIME_SYSTEM    = UTC
MEAN_ELEMENT_THEORY = SGP/SGP4

EPOCH          = 2025-11-30T22:00:03.000096
MEAN_MOTION    = 15.74942904
ECCENTRICITY   = .00012104
INCLINATION    = 42.9986
RA_OF_ASC_NODE = 195.1720
ARG_OF_PERICENTER = 263.3403
MEAN_ANOMALY   = 192.5223

EPHEMERIS_TYPE = 0
CLASSIFICATION_TYPE = U
NORAD_CAT_ID   = 66509
ELEMENT_SET_NO = 999
REV_AT_EPOCH   = 373
BSTAR          = .7826689E-3
MEAN_MOTION_DOT = .120974E-2
MEAN_MOTION_DDOT = 0

CCSDS_OMM_VERS = 2.0
CREATION_DATE  = 
ORIGINATOR     = 

OBJECT_NAME    = STARLINK-35600
OBJECT_ID      = 2025-263AB
CENTER_NAME    = EARTH
REF_FRAME      = TEME
TIME_SYSTEM    = UTC
MEAN_ELEMENT_THEORY = SGP/SGP4

EPOCH          = 2025-11-30T22:00:03.000096
MEAN_MOTION    = 15.75060827
ECCENTRICITY   = .00021572
INCLINATION    = 42.9986
RA_OF_ASC_NODE = 195.1872
ARG_OF_PERICENTER = 273.9028
MEAN_ANOMALY   = 176.1353

EPHEMERIS_TYPE = 0
CLASSIFICATION_TYPE = U
NORAD_CAT_ID   = 66510
ELEMENT_SET_NO = 999
REV_AT_EPOCH   = 373
BSTAR          = -.36843399E-3
MEAN_MOTION_DOT = -.56752E-3
MEAN_MOTION_DDOT = 0

CCSDS_OMM_VERS = 2.0
CREATION_DATE  = 
ORIGINATOR     = 

OBJECT_NAME    = STARLINK-35444
OBJECT_ID      = 2025-263AC
CENTER_NAME    = EARTH
REF_FRAME      = TEME
TIME_SYSTEM    = UTC
MEAN_ELEMENT_THEORY = SGP/SGP4

EPOCH          = 2025-11-30T22:00:03.000096
MEAN_MOTION    = 15.75118324
ECCENTRICITY   = .00017506
INCLINATION    = 42.9987
RA_OF_ASC_NODE = 195.1777
ARG_OF_PERICENTER = 264.1860
MEAN_ANOMALY   = 189.6759

EPHEMERIS_TYPE = 0
CLASSIFICATION_TYPE = U
NORAD_CAT_ID   = 66511
ELEMENT_SET_NO = 999
REV_AT_EPOCH   = 373
BSTAR          = -.94885376E-3
MEAN_MOTION_DOT = -.144271E-2
MEAN_MOTION_DDOT = 0

CCSDS_OMM_VERS = 2.0
CREATION_DATE  = 
ORIGINATOR     = 

OBJECT_NAME    = STARLINK-35366
OBJECT_ID      = 2025-263AD
CENTER_NAME    = EARTH
REF_FRAME      = TEME
TIME_SYSTEM    = UTC
MEAN_ELEMENT_THEORY = SGP/SGP4

EPOCH          = 2025-11-30T22:00:03.000096
MEAN_MOTION    = 15.75061210
ECCENTRICITY   = .00015676
INCLINATION    = 42.9987
RA_OF_ASC_NODE = 195.1674
ARG_OF_PERICENTER = 267.4972
MEAN_ANOMALY   = 190.1977

EPHEMERIS_TYPE = 0
CLASSIFICATION_TYPE = U
NORAD_CAT_ID   = 66512
ELEMENT_SET_NO = 999
REV_AT_EPOCH   = 373
BSTAR          = -.12124136E-3
MEAN_MOTION_DOT = -.19077E-3
MEAN_MOTION_DDOT = 0

CCSDS_OMM_VERS = 2.0
CREATION_DATE  = 
ORIGINATOR     = 

OBJECT_NAME    = STARLINK-35692
OBJECT_ID      = 2025-263AE
CENTER_NAME    = EARTH
REF_FRAME      = TEME
TIME_SYSTEM    = UTC
MEAN_ELEMENT_THEORY = SGP/SGP4

EPOCH          = 2025-11-30T22:00:03.000096
MEAN_MOTION    = 15.75080100
ECCENTRICITY   = .00015725
INCLINATION    = 42.9987
RA_OF_ASC_NODE = 195.1823
ARG_OF_PERICENTER = 266.7593
MEAN_ANOMALY   = 185.2000

EPHEMERIS_TYPE = 0
CLASSIFICATION_TYPE = U
NORAD_CAT_ID   = 66513
ELEMENT_SET_NO = 999
REV_AT_EPOCH   = 373
BSTAR          = -.65770627E-3
MEAN_MOTION_DOT = -.100493E-2
MEAN_MOTION_DDOT = 0

CCSDS_OMM_VERS = 2.0
CREATION_DATE  = 
ORIGINATOR     = 

OBJECT_NAME    = SENTINEL-6B
OBJECT_ID      = 2025-264A
CENTER_NAME    = EARTH
REF_FRAME      = TEME
TIME_SYSTEM    = UTC
MEAN_ELEMENT_THEORY = SGP/SGP4

EPOCH          = 2025-11-30T22:59:33.110304
MEAN_MOTION    = 12.85877129
ECCENTRICITY   = .00115288
INCLINATION    = 66.0387
RA_OF_ASC_NODE = 187.0448
ARG_OF_PERICENTER = 268.9966
MEAN_ANOMALY   = 90.9731

EPHEMERIS_TYPE = 0
CLASSIFICATION_TYPE = U
NORAD_CAT_ID   = 66514
ELEMENT_SET_NO = 999
REV_AT_EPOCH   = 177
BSTAR          = .26418467E-3
MEAN_MOTION_DOT = .3E-7
MEAN_MOTION_DDOT = 0

CCSDS_OMM_VERS = 2.0
CREATION_DATE  = 
ORIGINATOR     = 

OBJECT_NAME    = STARLINK-35924
OBJECT_ID      = 2025-265A
CENTER_NAME    = EARTH
REF_FRAME      = TEME
TIME_SYSTEM    = UTC
MEAN_ELEMENT_THEORY = SGP/SGP4

EPOCH          = 2025-11-30T22:00:03.000096
MEAN_MOTION    = 15.77993117
ECCENTRICITY   = .00016741
INCLINATION    = 42.9995
RA_OF_ASC_NODE = 124.5205
ARG_OF_PERICENTER = 285.0279
MEAN_ANOMALY   = 184.3464

EPHEMERIS_TYPE = 0
CLASSIFICATION_TYPE = U
NORAD_CAT_ID   = 66516
ELEMENT_SET_NO = 999
REV_AT_EPOCH   = 307
BSTAR          = -.84689458E-2
MEAN_MOTION_DOT = -.1326448E-1
MEAN_MOTION_DDOT = 0

CCSDS_OMM_VERS = 2.0
CREATION_DATE  = 
ORIGINATOR     = 

OBJECT_NAME    = STARLINK-35937
OBJECT_ID      = 2025-265B
CENTER_NAME    = EARTH
REF_FRAME      = TEME
TIME_SYSTEM    = UTC
MEAN_ELEMENT_THEORY = SGP/SGP4

EPOCH          = 2025-11-30T22:00:03.000096
MEAN_MOTION    = 15.77960782
ECCENTRICITY   = .0001693
INCLINATION    = 42.9997
RA_OF_ASC_NODE = 124.5160
ARG_OF_PERICENTER = 284.6178
MEAN_ANOMALY   = 186.8164

EPHEMERIS_TYPE = 0
CLASSIFICATION_TYPE = U
NORAD_CAT_ID   = 66517
ELEMENT_SET_NO = 999
REV_AT_EPOCH   = 309
BSTAR          = -.85125631E-2
MEAN_MOTION_DOT = -.1330821E-1
MEAN_MOTION_DDOT = 0

CCSDS_OMM_VERS = 2.0
CREATION_DATE  = 
ORIGINATOR     = 

OBJECT_NAME    = STARLINK-35962
OBJECT_ID      = 2025-265C
CENTER_NAME    = EARTH
REF_FRAME      = TEME
TIME_SYSTEM    = UTC
MEAN_ELEMENT_THEORY = SGP/SGP4

EPOCH          = 2025-11-30T22:00:03.000096
MEAN_MOTION    = 15.77950635
ECCENTRICITY   = .00016877
INCLINATION    = 42.9995
RA_OF_ASC_NODE = 124.5107
ARG_OF_PERICENTER = 288.4592
MEAN_ANOMALY   = 184.9560

EPHEMERIS_TYPE = 0
CLASSIFICATION_TYPE = U
NORAD_CAT_ID   = 66518
ELEMENT_SET_NO = 999
REV_AT_EPOCH   = 309
BSTAR          = -.85519717E-2
MEAN_MOTION_DOT = -.1335777E-1
MEAN_MOTION_DDOT = 0

CCSDS_OMM_VERS = 2.0
CREATION_DATE  = 
ORIGINATOR     = 

OBJECT_NAME    = STARLINK-35931
OBJECT_ID      = 2025-265D
CENTER_NAME    = EARTH
REF_FRAME      = TEME
TIME_SYSTEM    = UTC
MEAN_ELEMENT_THEORY = SGP/SGP4

EPOCH          = 2025-11-30T22:00:03.000096
MEAN_MOTION    = 15.77909764
ECCENTRICITY   = .00017158
INCLINATION    = 42.9997
RA_OF_ASC_NODE = 124.5051
ARG_OF_PERICENTER = 280.7137
MEAN_ANOMALY   = 194.8140

EPHEMERIS_TYPE = 0
CLASSIFICATION_TYPE = U
NORAD_CAT_ID   = 66519
ELEMENT_SET_NO = 999
REV_AT_EPOCH   = 309
BSTAR          = -.8654352E-2
MEAN_MOTION_DOT = -.1347838E-1
MEAN_MOTION_DDOT = 0

CCSDS_OMM_VERS = 2.0
CREATION_DATE  = 
ORIGINATOR     = 

OBJECT_NAME    = STARLINK-35952
OBJECT_ID      = 2025-265E
CENTER_NAME    = EARTH
REF_FRAME      = TEME
TIME_SYSTEM    = UTC
MEAN_ELEMENT_THEORY = SGP/SGP4

EPOCH          = 2025-11-30T22:00:03.000096
MEAN_MOTION    = 15.77860099
ECCENTRICITY   = .00015871
INCLINATION    = 42.9995
RA_OF_ASC_NODE = 124.4997
ARG_OF_PERICENTER = 288.1752
MEAN_ANOMALY   = 189.4742

EPHEMERIS_TYPE = 0
CLASSIFICATION_TYPE = U
NORAD_CAT_ID   = 66520
ELEMENT_SET_NO = 999
REV_AT_EPOCH   = 309
BSTAR          = -.87072261E-2
MEAN_MOTION_DOT = -.135239E-1
MEAN_MOTION_DDOT = 0

