STARLINK-35608          
1 66508U 25263Z   25334.91670139 -.00042186  00000+0 -27271-3 0  9990
2 66508  42.9986 195.1930 0001952 275.9488 172.1731 15.75052288  3731
STARLINK-35598          
1 66509U 25263AA  25334.91670139  .00120974  00000+0  78267-3 0  9992
2 66509  42.9986 195.1720 0001210 263.3403 192.5223 15.74942904  3738
STARLINK-35600          
1 66510U 25263AB  25334.91670139 -.00056752  00000+0 -36843-3 0  9992
2 66510  42.9986 195.1872 0002157 273.9028 176.1353 15.75060827  3737
STARLINK-35444          
1 66511U 25263AC  25334.91670139 -.00144271  00000+0 -94885-3 0  9997
2 66511  42.9987 195.1777 0001750 264.1860 189.6759 15.75118324  3732
STARLINK-35366          
1 66512U 25263AD  25334.91670139 -.00019077  00000+0 -12124-3 0  9999
2 66512  42.9987 195.1674 0001567 267.4972 190.1977 15.75061210  3735
STARLINK-35692          
1 66513U 25263AE  25334.91670139 -.00100493  00000+0 -65771-3 0  9999
2 66513  42.9987 195.1823 0001572 266.7593 185.2000 15.75080100  3730
SENTINEL-6B             
1 66514U 25264A   25334.95802211  .00000003  00000+0  26418-3 0  9992
2 66514  66.0387 187.0448 0011528 268.9966  90.9731 12.85877129  1773
STARLINK-35924          
1 66516U 25265A   25334.91670139 -.01326448  00000+0 -84689-2 0  9993
2 66516  42.9995 124.5205 0001674 285.0279 184.3464 15.77993117  3074
STARLINK-35937          
1 66517U 25265B   25334.91670139 -.01330821  00000+0 -85126-2 0  9991
2 66517  42.9997 124.5160 0001693 284.6178 186.8164 15.77960782  3099
STARLINK-35962          
1 66518U 25265C   25334.91670139 -.01335777  00000+0 -85520-2 0  9995
2 66518  42.9995 124.5107 0001687 288.4592 184.9560 15.77950635  3099
STARLINK-35931          
1 66519U 25265D   25334.91670139 -.01347838  00000+0 -86544-2 0  9994
2 66519  42.9997 124.5051 0001715 280.7137 194.8140 15.77909764  3093
STARLINK-35952          
1 66520U 25265E   25334.91670139 -.01352390  00000+0 -87072-2 0  9992
2 66520  42.9995 124.4997 0001587 288.1752 189.4742 15.77860099  3098
